start=new Date('2022-11-02T00:00:00.000Z').valueOf();
sats=[{"MEAN_MOTION_DOT":"-0.00012878","ECCENTRICITY":"0.00014890","OBJECT_ID":"2022-076R","DECAY_DATE":null,"BSTAR":"-0.00079256000000","COUNTRY_CODE":"US","MEAN_MOTION_DDOT":"0.0000000000000","TLE_LINE1":"1 53001U 22076R   22305.91667824 -.00012878  00000-0 -79256-3 0  9991","EPOCH":"2022-11-01T22:00:00.999936","REF_FRAME":"TEME","SEMIMAJOR_AXIS":"6917.893","GP_ID":"216687817","MEAN_ELEMENT_THEORY":"SGP4","REV_AT_EPOCH":"130","TLE_LINE2":"2 53001  53.2166 187.8392 0001489  60.2496 108.5024 15.08836018  1305","RCS_SIZE":"LARGE","OBJECT_NAME":"STARLINK-4190","TIME_SYSTEM":"UTC","ELEMENT_SET_NO":"999","EPHEMERIS_TYPE":"0","CLASSIFICATION_TYPE":"U","FILE":"3640431","APOAPSIS":"540.788","NORAD_CAT_ID":"53001","PERIOD":"95.438","CENTER_NAME":"EARTH","OBJECT_TYPE":"PAYLOAD","INCLINATION":"53.2166","LAUNCH_DATE":"2022-07-07","PERIAPSIS":"538.727","ARG_OF_PERICENTER":"60.2496","MEAN_ANOMALY":"108.5024","RA_OF_ASC_NODE":"187.8392","MEAN_MOTION":"15.08836018","SITE":"AFETR"},{"ECCENTRICITY":"0.00020250","MEAN_MOTION_DOT":"-0.00013805","BSTAR":"-0.00085089000000","DECAY_DATE":null,"OBJECT_ID":"2022-076S","GP_ID":"216688399","SEMIMAJOR_AXIS":"6917.878","REF_FRAME":"TEME","EPOCH":"2022-11-01T22:00:00.999936","MEAN_MOTION_DDOT":"0.0000000000000","TLE_LINE1":"1 53002U 22076S   22305.91667824 -.00013805  00000-0 -85089-3 0  9994","COUNTRY_CODE":"US","TLE_LINE2":"2 53002  53.2165 187.8560 0002025  35.5099  53.2466 15.08840898  1300","REV_AT_EPOCH":"130","MEAN_ELEMENT_THEORY":"SGP4","CLASSIFICATION_TYPE":"U","EPHEMERIS_TYPE":"0","TIME_SYSTEM":"UTC","ELEMENT_SET_NO":"999","OBJECT_NAME":"STARLINK-4121","RCS_SIZE":"LARGE","PERIOD":"95.437","CENTER_NAME":"EARTH","NORAD_CAT_ID":"53002","APOAPSIS":"541.144","FILE":"3640431","ARG_OF_PERICENTER":"35.5099","PERIAPSIS":"538.342","LAUNCH_DATE":"2022-07-07","INCLINATION":"53.2165","OBJECT_TYPE":"PAYLOAD","SITE":"AFETR","MEAN_MOTION":"15.08840898","RA_OF_ASC_NODE":"187.8560","MEAN_ANOMALY":"53.2466"},{"TLE_LINE2":"2 53003  53.2166 187.8384 0001498  66.3682 142.3554 15.08865675  1307","REV_AT_EPOCH":"130","MEAN_ELEMENT_THEORY":"SGP4","REF_FRAME":"TEME","EPOCH":"2022-11-01T22:00:00.999936","GP_ID":"216687652","SEMIMAJOR_AXIS":"6917.802","COUNTRY_CODE":"US","TLE_LINE1":"1 53003U 22076T   22305.91667824 -.00050590  00000-0 -31808-2 0  9996","MEAN_MOTION_DDOT":"0.0000000000000","BSTAR":"-0.00318080000000","OBJECT_ID":"2022-076T","DECAY_DATE":null,"MEAN_MOTION_DOT":"-0.00050590","ECCENTRICITY":"0.00014980","MEAN_MOTION":"15.08865675","RA_OF_ASC_NODE":"187.8384","SITE":"AFETR","MEAN_ANOMALY":"142.3554","ARG_OF_PERICENTER":"66.3682","PERIAPSIS":"538.631","OBJECT_TYPE":"PAYLOAD","LAUNCH_DATE":"2022-07-07","INCLINATION":"53.2166","PERIOD":"95.436","CENTER_NAME":"EARTH","NORAD_CAT_ID":"53003","FILE":"3640431","APOAPSIS":"540.703","ELEMENT_SET_NO":"999","TIME_SYSTEM":"UTC","CLASSIFICATION_TYPE":"U","EPHEMERIS_TYPE":"0","OBJECT_NAME":"STARLINK-4255","RCS_SIZE":"MEDIUM"},{"MEAN_ELEMENT_THEORY":"SGP4","TLE_LINE2":"2 53004  53.2154 187.8429 0001725  53.4716  75.2927 15.08855171  1301","REV_AT_EPOCH":"130","TLE_LINE1":"1 53004U 22076U   22305.91667824 -.00049176  00000-0 -30916-2 0  9994","MEAN_MOTION_DDOT":"0.0000000000000","COUNTRY_CODE":"US","GP_ID":"216688567","SEMIMAJOR_AXIS":"6917.834","REF_FRAME":"TEME","EPOCH":"2022-11-01T22:00:00.999936","DECAY_DATE":null,"OBJECT_ID":"2022-076U","BSTAR":"-0.00309160000000","ECCENTRICITY":"0.00017250","MEAN_MOTION_DOT":"-0.00049176","MEAN_ANOMALY":"75.2927","SITE":"AFETR","MEAN_MOTION":"15.08855171","RA_OF_ASC_NODE":"187.8429","INCLINATION":"53.2154","LAUNCH_DATE":"2022-07-07","OBJECT_TYPE":"PAYLOAD","ARG_OF_PERICENTER":"53.4716","PERIAPSIS":"538.506","APOAPSIS":"540.892","FILE":"3640431","NORAD_CAT_ID":"53004","PERIOD":"95.437","CENTER_NAME":"EARTH","OBJECT_NAME":"STARLINK-4253","RCS_SIZE":"LARGE","CLASSIFICATION_TYPE":"U","EPHEMERIS_TYPE":"0","TIME_SYSTEM":"UTC","ELEMENT_SET_NO":"999"},{"FILE":"3640431","APOAPSIS":"540.971","NORAD_CAT_ID":"53005","PERIOD":"95.439","CENTER_NAME":"EARTH","RCS_SIZE":"LARGE","OBJECT_NAME":"STARLINK-4288","TIME_SYSTEM":"UTC","ELEMENT_SET_NO":"999","EPHEMERIS_TYPE":"0","CLASSIFICATION_TYPE":"U","MEAN_ANOMALY":"164.4703","RA_OF_ASC_NODE":"187.8358","MEAN_MOTION":"15.08813873","SITE":"AFETR","OBJECT_TYPE":"PAYLOAD","LAUNCH_DATE":"2022-07-07","INCLINATION":"53.2150","PERIAPSIS":"538.680","ARG_OF_PERICENTER":"64.3155","OBJECT_ID":"2022-076V","DECAY_DATE":null,"BSTAR":"-0.00014340000000","MEAN_MOTION_DOT":"-0.00002568","ECCENTRICITY":"0.00016560","MEAN_ELEMENT_THEORY":"SGP4","REV_AT_EPOCH":"130","TLE_LINE2":"2 53005  53.2150 187.8358 0001656  64.3155 164.4703 15.08813873  1306","COUNTRY_CODE":"US","MEAN_MOTION_DDOT":"0.0000000000000","TLE_LINE1":"1 53005U 22076V   22305.91667824 -.00002568  00000-0 -14340-3 0  9993","EPOCH":"2022-11-01T22:00:00.999936","REF_FRAME":"TEME","SEMIMAJOR_AXIS":"6917.960","GP_ID":"216688236"},{"OBJECT_NAME":"STARLINK-4290","RCS_SIZE":"LARGE","ELEMENT_SET_NO":"999","TIME_SYSTEM":"UTC","CLASSIFICATION_TYPE":"U","EPHEMERIS_TYPE":"0","FILE":"3640431","APOAPSIS":"540.866","PERIOD":"95.435","NORAD_CAT_ID":"53006","CENTER_NAME":"EARTH","OBJECT_TYPE":"PAYLOAD","INCLINATION":"53.2169","LAUNCH_DATE":"2022-07-07","ARG_OF_PERICENTER":"49.9694","PERIAPSIS":"538.423","MEAN_ANOMALY":"138.7738","MEAN_MOTION":"15.08873083","RA_OF_ASC_NODE":"187.8399","SITE":"AFETR","MEAN_MOTION_DOT":"-0.00068357","ECCENTRICITY":"0.00017660","OBJECT_ID":"2022-076W","DECAY_DATE":null,"BSTAR":"-0.00431400000000","COUNTRY_CODE":"US","TLE_LINE1":"1 53006U 22076W   22305.91667824 -.00068357  00000-0 -43140-2 0  9991","MEAN_MOTION_DDOT":"0.0000000000000","REF_FRAME":"TEME","EPOCH":"2022-11-01T22:00:00.999936","GP_ID":"216687981","SEMIMAJOR_AXIS":"6917.779","MEAN_ELEMENT_THEORY":"SGP4","TLE_LINE2":"2 53006  53.2169 187.8399 0001766  49.9694 138.7738 15.08873083  1302","REV_AT_EPOCH":"130"},{"ECCENTRICITY":"0.00016780","MEAN_MOTION_DOT":"-0.00023742","DECAY_DATE":null,"OBJECT_ID":"2022-076X","BSTAR":"-0.00147790000000","MEAN_MOTION_DDOT":"0.0000000000000","TLE_LINE1":"1 53007U 22076X   22305.91667824 -.00023742  00000-0 -14779-2 0  9997","COUNTRY_CODE":"US","GP_ID":"216688071","SEMIMAJOR_AXIS":"6917.833","EPOCH":"2022-11-01T22:00:00.999936","REF_FRAME":"TEME","MEAN_ELEMENT_THEORY":"SGP4","REV_AT_EPOCH":"130","TLE_LINE2":"2 53007  53.2152 187.8372 0001678  61.9502 206.7369 15.08855415  1305","RCS_SIZE":"LARGE","OBJECT_NAME":"STARLINK-4215","EPHEMERIS_TYPE":"0","CLASSIFICATION_TYPE":"U","ELEMENT_SET_NO":"999","TIME_SYSTEM":"UTC","APOAPSIS":"540.859","FILE":"3640431","PERIOD":"95.437","CENTER_NAME":"EARTH","NORAD_CAT_ID":"53007","LAUNCH_DATE":"2022-07-07","INCLINATION":"53.2152","OBJECT_TYPE":"PAYLOAD","PERIAPSIS":"538.537","ARG_OF_PERICENTER":"61.9502","MEAN_ANOMALY":"206.7369","SITE":"AFETR","RA_OF_ASC_NODE":"187.8372","MEAN_MOTION":"15.08855415"},{"OBJECT_NAME":"STARLINK-4275","RCS_SIZE":"LARGE","TIME_SYSTEM":"UTC","ELEMENT_SET_NO":"999","CLASSIFICATION_TYPE":"U","EPHEMERIS_TYPE":"0","FILE":"3640431","APOAPSIS":"540.742","PERIOD":"95.436","NORAD_CAT_ID":"53008","CENTER_NAME":"EARTH","OBJECT_TYPE":"PAYLOAD","INCLINATION":"53.2157","LAUNCH_DATE":"2022-07-07","ARG_OF_PERICENTER":"61.5440","PERIAPSIS":"538.641","MEAN_ANOMALY":"181.9829","MEAN_MOTION":"15.08857637","RA_OF_ASC_NODE":"187.8401","SITE":"AFETR","MEAN_MOTION_DOT":"-0.00041577","ECCENTRICITY":"0.00015190","OBJECT_ID":"2022-076Y","DECAY_DATE":null,"BSTAR":"-0.00260810000000","COUNTRY_CODE":"US","TLE_LINE1":"1 53008U 22076Y   22305.91667824 -.00041577  00000-0 -26081-2 0  9993","MEAN_MOTION_DDOT":"0.0000000000000","REF_FRAME":"TEME","EPOCH":"2022-11-01T22:00:00.999936","SEMIMAJOR_AXIS":"6917.826","GP_ID":"216688820","MEAN_ELEMENT_THEORY":"SGP4","TLE_LINE2":"2 53008  53.2157 187.8401 0001519  61.5440 181.9829 15.08857637  1308","REV_AT_EPOCH":"130"},{"INCLINATION":"53.2146","LAUNCH_DATE":"2022-07-07","OBJECT_TYPE":"PAYLOAD","PERIAPSIS":"538.501","ARG_OF_PERICENTER":"61.5937","MEAN_ANOMALY":"282.1216","SITE":"AFETR","RA_OF_ASC_NODE":"177.8532","MEAN_MOTION":"15.08869476","RCS_SIZE":"LARGE","OBJECT_NAME":"STARLINK-4277","EPHEMERIS_TYPE":"0","CLASSIFICATION_TYPE":"U","ELEMENT_SET_NO":"999","TIME_SYSTEM":"UTC","APOAPSIS":"540.809","FILE":"3640431","PERIOD":"95.436","NORAD_CAT_ID":"53009","CENTER_NAME":"EARTH","TLE_LINE1":"1 53009U 22076Z   22305.91667824 -.00054007  00000-0 -33981-2 0  9993","MEAN_MOTION_DDOT":"0.0000000000000","COUNTRY_CODE":"US","GP_ID":"216687818","SEMIMAJOR_AXIS":"6917.790","EPOCH":"2022-11-01T22:00:00.999936","REF_FRAME":"TEME","MEAN_ELEMENT_THEORY":"SGP4","REV_AT_EPOCH":"130","TLE_LINE2":"2 53009  53.2146 177.8532 0001668  61.5937 282.1216 15.08869476  1305","ECCENTRICITY":"0.00016680","MEAN_MOTION_DOT":"-0.00054007","DECAY_DATE":null,"OBJECT_ID":"2022-076Z","BSTAR":"-0.00339810000000"},{"PERIOD":"95.436","NORAD_CAT_ID":"53010","CENTER_NAME":"EARTH","FILE":"3640431","APOAPSIS":"541.075","ELEMENT_SET_NO":"999","TIME_SYSTEM":"UTC","EPHEMERIS_TYPE":"0","CLASSIFICATION_TYPE":"U","RCS_SIZE":"LARGE","OBJECT_NAME":"STARLINK-4263","RA_OF_ASC_NODE":"187.8387","MEAN_MOTION":"15.08864461","SITE":"AFETR","MEAN_ANOMALY":"206.7092","PERIAPSIS":"538.266","ARG_OF_PERICENTER":"41.9694","OBJECT_TYPE":"PAYLOAD","INCLINATION":"53.2154","LAUNCH_DATE":"2022-07-07","BSTAR":"-0.00249100000000","OBJECT_ID":"2022-076AA","DECAY_DATE":null,"MEAN_MOTION_DOT":"-0.00039742","ECCENTRICITY":"0.00020300","REV_AT_EPOCH":"130","TLE_LINE2":"2 53010  53.2154 187.8387 0002030  41.9694 206.7092 15.08864461  1304","MEAN_ELEMENT_THEORY":"SGP4","EPOCH":"2022-11-01T22:00:00.999936","REF_FRAME":"TEME","SEMIMAJOR_AXIS":"6917.806","GP_ID":"216688400","COUNTRY_CODE":"US","TLE_LINE1":"1 53010U 22076AA  22305.91667824 -.00039742  00000-0 -24910-2 0  9996","MEAN_MOTION_DDOT":"0.0000000000000"}];
